{
  "type": "FeatureCollection",
  "features": [
    {
      "type": "Feature",
      "properties": {
        "norad_id": 30080,
        "name": "FENGYUN 1C DEB",
        "group": "fengyun-1c-debris",
        "lat": 48.602942155765604,
        "lon": -41.214716998850214,
        "alt_km": 755.9420967102706,
        "timestamp": "2025-12-14T07:33:19.751183+00:00",
        "meta_object_name": "FENGYUN 1C DEB",
        "meta_object_id": "1999-025QH",
        "meta_epoch": "2025-12-13T16:50:28.158720",
        "meta_mean_motion": 14.10822726,
        "meta_eccentricity": 0.01338254,
        "meta_inclination": 98.6984,
        "meta_ra_of_asc_node": 328.1925,
        "meta_arg_of_pericenter": 57.8806,
        "meta_mean_anomaly": 119.5762,
        "meta_ephemeris_type": 0,
        "meta_classification_type": "U",
        "meta_norad_cat_id": 30080,
        "meta_element_set_no": 999,
        "meta_rev_at_epoch": 97251,
        "meta_bstar": 0.00044478131,
        "meta_mean_motion_dot": 8.25e-06,
        "meta_mean_motion_ddot": 0,
        "tle_line1": "1 30080U 99025QH  25347.70171480  .00000825  00000+0  44478-3 0  9999",
        "tle_line2": "2 30080  98.6984 328.1925 0133825  57.8806 119.5762 14.10822726972511"
      },
      "geometry": {
        "type": "Point",
        "coordinates": [
          -41.214716998850214,
          48.602942155765604
        ]
      }
    },
    {
      "type": "Feature",
      "properties": {
        "norad_id": 30081,
        "name": "FENGYUN 1C DEB",
        "group": "fengyun-1c-debris",
        "lat": 5.323871082723847,
        "lon": 165.38296860839074,
        "alt_km": 953.9079768641577,
        "timestamp": "2025-12-14T07:33:19.751193+00:00",
        "meta_object_name": "FENGYUN 1C DEB",
        "meta_object_id": "1999-025QJ",
        "meta_epoch": "2025-12-13T12:24:20.211840",
        "meta_mean_motion": 13.98279511,
        "meta_eccentricity": 0.00758942,
        "meta_inclination": 98.9228,
        "meta_ra_of_asc_node": 343.7682,
        "meta_arg_of_pericenter": 337.1023,
        "meta_mean_anomaly": 143.357,
        "meta_ephemeris_type": 0,
        "meta_classification_type": "U",
        "meta_norad_cat_id": 30081,
        "meta_element_set_no": 999,
        "meta_rev_at_epoch": 96365,
        "meta_bstar": 0.00077386783,
        "meta_mean_motion_dot": 1.088e-05,
        "meta_mean_motion_ddot": 0,
        "tle_line1": "1 30081U 99025QJ  25347.51690060  .00001088  00000+0  77387-3 0  9996",
        "tle_line2": "2 30081  98.9228 343.7682 0075894 337.1023 143.3570 13.98279511963655"
      },
      "geometry": {
        "type": "Point",
        "coordinates": [
          165.38296860839074,
          5.323871082723847
        ]
      }
    },
    {
      "type": "Feature",
      "properties": {
        "norad_id": 30082,
        "name": "FENGYUN 1C DEB",
        "group": "fengyun-1c-debris",
        "lat": 0.5944521538715545,
        "lon": -83.78170952268144,
        "alt_km": 568.6003511737754,
        "timestamp": "2025-12-14T07:33:19.751204+00:00",
        "meta_object_name": "FENGYUN 1C DEB",
        "meta_object_id": "1999-025QK",
        "meta_epoch": "2025-12-13T14:07:06.170304",
        "meta_mean_motion": 15.15166399,
        "meta_eccentricity": 0.00698372,
        "meta_inclination": 98.8173,
        "meta_ra_of_asc_node": 275.4686,
        "meta_arg_of_pericenter": 163.3607,
        "meta_mean_anomaly": 196.9936,
        "meta_ephemeris_type": 0,
        "meta_classification_type": "U",
        "meta_norad_cat_id": 30082,
        "meta_element_set_no": 999,
        "meta_rev_at_epoch": 1306,
        "meta_bstar": 0.0013521575,
        "meta_mean_motion_dot": 0.00026966,
        "meta_mean_motion_ddot": 0,
        "tle_line1": "1 30082U 99025QK  25347.58826586  .00026966  00000+0  13522-2 0  9990",
        "tle_line2": "2 30082  98.8173 275.4686 0069837 163.3607 196.9936 15.15166399 13067"
      },
      "geometry": {
        "type": "Point",
        "coordinates": [
          -83.78170952268144,
          0.5944521538715545
        ]
      }
    },
    {
      "type": "Feature",
      "properties": {
        "norad_id": 30086,
        "name": "FENGYUN 1C DEB",
        "group": "fengyun-1c-debris",
        "lat": -5.578493209088639,
        "lon": 22.844269940145878,
        "alt_km": 916.1068063555122,
        "timestamp": "2025-12-14T07:33:19.751214+00:00",
        "meta_object_name": "FENGYUN 1C DEB",
        "meta_object_id": "1999-025QP",
        "meta_epoch": "2025-12-12T00:59:13.295040",
        "meta_mean_motion": 14.03826599,
        "meta_eccentricity": 0.0061789,
        "meta_inclination": 98.9101,
        "meta_ra_of_asc_node": 19.738,
        "meta_arg_of_pericenter": 136.4979,
        "meta_mean_anomaly": 254.0887,
        "meta_ephemeris_type": 0,
        "meta_classification_type": "U",
        "meta_norad_cat_id": 30086,
        "meta_element_set_no": 999,
        "meta_rev_at_epoch": 96686,
        "meta_bstar": 0.00068007,
        "meta_mean_motion_dot": 1.047e-05,
        "meta_mean_motion_ddot": 0,
        "tle_line1": "1 30086U 99025QP  25346.04112610  .00001047  00000+0  68007-3 0  9992",
        "tle_line2": "2 30086  98.9101  19.7380 0061789 136.4979 254.0887 14.03826599966861"
      },
      "geometry": {
        "type": "Point",
        "coordinates": [
          22.844269940145878,
          -5.578493209088639
        ]
      }
    },
    {
      "type": "Feature",
      "properties": {
        "norad_id": 30087,
        "name": "FENGYUN 1C DEB",
        "group": "fengyun-1c-debris",
        "lat": 76.64850323824858,
        "lon": -17.880282621437047,
        "alt_km": 632.7024402452598,
        "timestamp": "2025-12-14T07:33:19.751225+00:00",
        "meta_object_name": "FENGYUN 1C DEB",
        "meta_object_id": "1999-025QQ",
        "meta_epoch": "2025-12-13T15:01:53.529600",
        "meta_mean_motion": 14.35704477,
        "meta_eccentricity": 0.02303342,
        "meta_inclination": 98.3804,
        "meta_ra_of_asc_node": 19.847,
        "meta_arg_of_pericenter": 118.7341,
        "meta_mean_anomaly": 5.9558,
        "meta_ephemeris_type": 0,
        "meta_classification_type": "U",
        "meta_norad_cat_id": 30087,
        "meta_element_set_no": 999,
        "meta_rev_at_epoch": 98708,
        "meta_bstar": 0.00034569501,
        "meta_mean_motion_dot": 1.302e-05,
        "meta_mean_motion_ddot": 0,
        "tle_line1": "1 30087U 99025QQ  25347.62631400  .00001302  00000+0  34570-3 0  9993",
        "tle_line2": "2 30087  98.3804  19.8470 0230334 118.7341   5.9558 14.35704477987087"
      },
      "geometry": {
        "type": "Point",
        "coordinates": [
          -17.880282621437047,
          76.64850323824858
        ]
      }
    },
    {
      "type": "Feature",
      "properties": {
        "norad_id": 30088,
        "name": "FENGYUN 1C DEB",
        "group": "fengyun-1c-debris",
        "lat": -17.375062937157548,
        "lon": -24.817251883690936,
        "alt_km": 798.5450792473912,
        "timestamp": "2025-12-14T07:33:19.751236+00:00",
        "meta_object_name": "FENGYUN 1C DEB",
        "meta_object_id": "1999-025QR",
        "meta_epoch": "2025-12-13T12:09:17.597088",
        "meta_mean_motion": 14.35915139,
        "meta_eccentricity": 0.02007726,
        "meta_inclination": 98.3543,
        "meta_ra_of_asc_node": 331.7634,
        "meta_arg_of_pericenter": 245.167,
        "meta_mean_anomaly": 238.8782,
        "meta_ephemeris_type": 0,
        "meta_classification_type": "U",
        "meta_norad_cat_id": 30088,
        "meta_element_set_no": 999,
        "meta_rev_at_epoch": 98683,
        "meta_bstar": 0.00058879665,
        "meta_mean_motion_dot": 2.098e-05,
        "meta_mean_motion_ddot": 0,
        "tle_line1": "1 30088U 99025QR  25347.50645367  .00002098  00000+0  58880-3 0  9991",
        "tle_line2": "2 30088  98.3543 331.7634 0200772 245.1670 238.8782 14.35915139986836"
      },
      "geometry": {
        "type": "Point",
        "coordinates": [
          -24.817251883690936,
          -17.375062937157548
        ]
      }
    },
    {
      "type": "Feature",
      "properties": {
        "norad_id": 30089,
        "name": "FENGYUN 1C DEB",
        "group": "fengyun-1c-debris",
        "lat": -18.85456478096304,
        "lon": -103.18653722631714,
        "alt_km": 833.1340872580186,
        "timestamp": "2025-12-14T07:33:19.751246+00:00",
        "meta_object_name": "FENGYUN 1C DEB",
        "meta_object_id": "1999-025QS",
        "meta_epoch": "2025-12-13T15:11:23.618400",
        "meta_mean_motion": 14.30306602,
        "meta_eccentricity": 0.00733263,
        "meta_inclination": 98.903,
        "meta_ra_of_asc_node": 253.0475,
        "meta_arg_of_pericenter": 207.3491,
        "meta_mean_anomaly": 223.8953,
        "meta_ephemeris_type": 0,
        "meta_classification_type": "U",
        "meta_norad_cat_id": 30089,
        "meta_element_set_no": 999,
        "meta_rev_at_epoch": 98492,
        "meta_bstar": 0.00032777124,
        "meta_mean_motion_dot": 8.29e-06,
        "meta_mean_motion_ddot": 0,
        "tle_line1": "1 30089U 99025QS  25347.63291225  .00000829  00000+0  32777-3 0  9993",
        "tle_line2": "2 30089  98.9030 253.0475 0073326 207.3491 223.8953 14.30306602984923"
      },
      "geometry": {
        "type": "Point",
        "coordinates": [
          -103.18653722631714,
          -18.85456478096304
        ]
      }
    }
  ]
}